IRIDIUM 26              
1 24903U 97043A   25318.29469608  .00000944  00000+0  31026-3 0  9995
2 24903  86.3979  47.5138 0001963  90.9403 269.2019 14.37294222478301
IRIDIUM 22              
1 24907U 97043E   25318.34920402  .00000867  00000+0  29134-3 0  9990
2 24907  86.3979  51.1596 0001994  96.4173 263.7251 14.36091829478329
DUMMY MASS 1            
1 24925U 97048A   25318.34344378  .00000999  00000+0  10814-3 0  9998
2 24925  86.3348  65.8436 0005974 355.0573   5.0592 14.87144887527446
DUMMY MASS 2            
1 24926U 97048B   25318.59985810  .00000957  00000+0  10410-3 0  9994
2 24926  86.3347  67.3609 0007160   3.6221 356.5054 14.86895960527250
IRIDIUM 29              
1 24944U 97051A   25318.31792234  .00001105  00000+0  36909-3 0  9991
2 24944  86.3938  80.8758 0002160  97.3386 262.8057 14.36623760474826
IRIDIUM 33              
1 24946U 97051C   25318.39634617  .00000792  00000+0  27139-3 0  9997
2 24946  86.3856  80.1174 0006305 318.7336  41.3383 14.35006699474289
IRIDIUM 28              
1 24948U 97051E   25318.61436429  .00000961  00000+0  31442-3 0  9995
2 24948  86.3948  78.1800 0001647  81.8789 278.2595 14.37526206475459
IRIDIUM 36              
1 24967U 97056C   25318.69336187  .00000981  00000+0  31979-3 0  9996
2 24967  86.3936 109.7789 0001787  91.5107 268.6296 14.37746263473840
